NORAD_CAT_ID,OBJECT_NAME,OBJECT_TYPE,EPOCH,MEAN_MOTION,ECCENTRICITY,INCLINATION,RA_OF_ASC_NODE,ARG_OF_PERICENTER,MEAN_ANOMALY,BSTAR,MEAN_MOTION_DOT,MEAN_MOTION_DDOT,TLE_LINE0,TLE_LINE1,TLE_LINE2,SEMIMAJOR_AXIS,PERIOD,APOGEE,PERIGEE,DECAYED
53013.0,STARLINK-4177,PAYLOAD,2024-07-10 16:04:44,15.08853271,0.0001363,53.217,289.1379,100.7581,259.3565,8.5557e-06,-1.52e-06,0.0,0 STARLINK-4177,1 53013U 22076AD  24192.66996312 -.00000152  00000-0  85557-5 0  9993,2 53013  53.2170 289.1379 0001363 100.7581 259.3565 15.08853271111813,6917.84,95.437,540.648,538.762,0.0
53013.0,STARLINK-4177,PAYLOAD,2024-07-11 12:44:46,15.08842798,0.0001488,53.2173,285.2759,80.4381,279.6779,2.8844e-05,1.71e-06,0.0,0 STARLINK-4177,1 53013U 22076AD  24193.53109118  .00000171  00000-0  28844-4 0  9995,2 53013  53.2173 285.2759 0001488  80.4381 279.6779 15.08842798111471,6917.872,95.437,540.766,538.707,0.0
53013.0,STARLINK-4177,PAYLOAD,2024-07-11 15:55:32,15.08846054,0.0001451,53.2171,284.6792,86.28,273.8358,6.3969e-05,7.3e-06,0.0,0 STARLINK-4177,1 53013U 22076AD  24193.66356746  .00000730  00000-0  63969-4 0  9998,2 53013  53.2171 284.6792 0001451  86.2800 273.8358 15.08846054111961,6917.862,95.437,540.731,538.723,0.0
53013.0,STARLINK-4177,PAYLOAD,2024-07-12 12:35:33,15.08847951,0.000137,53.2177,280.8166,88.9167,271.1983,6.6343e-05,7.68e-06,0.0,0 STARLINK-4177,1 53013U 22076AD  24194.52468807  .00000768  00000-0  66343-4 0  9996,2 53013  53.2177 280.8166 0001370  88.9167 271.1983 15.08847951111620,6917.856,95.437,540.669,538.773,0.0
53013.0,STARLINK-4177,PAYLOAD,2024-07-13 12:26:20,15.08846573,0.0001341,53.2165,276.3534,79.8294,280.2849,0.0001004,1.311e-05,0.0,0 STARLINK-4177,1 53013U 22076AD  24195.51828833  .00001311  00000-0  10040-3 0  9992,2 53013  53.2165 276.3534 0001341  79.8294 280.2849 15.08846573112244,6917.86,95.437,540.653,538.798,0.0
53013.0,STARLINK-4177,PAYLOAD,2024-07-13 21:58:39,15.08842751,0.0001203,53.215,274.5708,85.8429,274.27,1.9436e-05,2.2e-07,0.0,0 STARLINK-4177,1 53013U 22076AD  24195.91573195  .00000022  00000-0  19436-4 0  9991,2 53013  53.2150 274.5708 0001203  85.8429 274.2700 15.08842751111832,6917.872,95.437,540.569,538.905,0.0
53013.0,STARLINK-4177,PAYLOAD,2024-07-14 12:17:07,15.08838424,0.0001416,53.2177,271.8981,99.6981,260.4171,6.6987e-05,7.78e-06,0.0,0 STARLINK-4177,1 53013U 22076AD  24196.51189603  .00000778  00000-0  66987-4 0  9996,2 53013  53.2177 271.8981 0001416  99.6981 260.4171 15.08838424111927,6917.885,95.438,540.73,538.771,0.0
53013.0,STARLINK-4177,PAYLOAD,2024-07-15 13:43:17,15.08849663,0.0001426,53.2175,267.1364,88.1558,271.9598,7.5139e-05,9.08e-06,0.0,0 STARLINK-4177,1 53013U 22076AD  24197.57173050  .00000908  00000-0  75139-4 0  9996,2 53013  53.2175 267.1364 0001426  88.1558 271.9598 15.08849663112087,6917.851,95.437,540.702,538.729,0.0
53013.0,STARLINK-4177,PAYLOAD,2024-07-15 21:40:13,15.08842339,0.0001352,53.2174,265.6471,86.8554,273.2593,-2.787e-05,-7.31e-06,0.0,0 STARLINK-4177,1 53013U 22076AD  24197.90293535 -.00000731  00000-0 -27870-4 0  9999,2 53013  53.2174 265.6471 0001352  86.8554 273.2593 15.08842339112136,6917.873,95.437,540.674,538.803,0.0
53013.0,STARLINK-4177,PAYLOAD,2024-07-16 11:58:41,15.08841981,0.0001405,53.2171,262.9716,93.9337,266.1816,0.00011113,1.481e-05,0.0,0 STARLINK-4177,1 53013U 22076AD  24198.49909452  .00001481  00000-0  11113-3 0  9999,2 53013  53.2171 262.9716 0001405  93.9337 266.1816 15.08841981112223,6917.874,95.437,540.711,538.767,0.0
53013.0,STARLINK-4177,PAYLOAD,2024-07-17 03:52:33,15.08840527,0.000141,53.2165,260.0017,80.1845,279.9306,9.5986e-05,1.24e-05,0.0,0 STARLINK-4177,1 53013U 22076AD  24199.16149623  .00001240  00000-0  95986-4 0  9994,2 53013  53.2165 260.0017 0001410  80.1845 279.9306 15.08840527112790,6917.879,95.438,540.719,538.768,0.0
53013.0,STARLINK-4177,PAYLOAD,2024-07-17 11:49:28,15.08851188,0.000131,53.2163,258.5127,92.2792,267.8351,7.7677e-05,9.49e-06,0.0,0 STARLINK-4177,1 53013U 22076AD  24199.49269007  .00000949  00000-0  77677-4 0  9991,2 53013  53.2163 258.5127 0001310  92.2792 267.8351 15.08851188112843,6917.846,95.437,540.617,538.805,0.0
53013.0,STARLINK-4177,PAYLOAD,2024-07-18 10:04:53,15.08835867,0.0001487,53.218,254.3491,94.4286,265.6876,3.72e-05,3.04e-06,0.0,0 STARLINK-4177,1 53013U 22076AD  24200.42006532  .00000304  00000-0  37200-4 0  9992,2 53013  53.2180 254.3491 0001487  94.4286 265.6876 15.08835867112986,6917.893,95.438,540.787,538.729,0.0
53013.0,STARLINK-4177,PAYLOAD,2024-07-19 09:55:42,15.08819436,0.0001296,53.2164,249.8878,89.1978,270.9163,-0.0001737,-3.05e-05,0.0,0 STARLINK-4177,1 53013U 22076AD  24201.41368233 -.00003050  00000-0 -17370-3 0  9999,2 53013  53.2164 249.8878 0001296  89.1978 270.9163 15.08819436113133,6917.943,95.439,540.705,538.912,0.0
53013.0,STARLINK-4177,PAYLOAD,2024-07-20 03:24:56,15.08831433,0.000153,53.2182,246.6185,94.9115,265.2052,5.5406e-05,5.94e-06,0.0,0 STARLINK-4177,1 53013U 22076AD  24202.14231741  .00000594  00000-0  55406-4 0  9994,2 53013  53.2182 246.6185 0001530  94.9115 265.2052 15.08831433113244,6917.907,95.438,540.83,538.713,0.0
53013.0,STARLINK-4177,PAYLOAD,2024-07-20 09:46:28,15.08843455,0.0001673,53.2154,245.432,97.344,262.7742,0.00030251,4.53e-05,0.0,0 STARLINK-4177,1 53013U 22076AD  24202.40727292  .00004530  00000-0  30251-3 0  9998,2 53013  53.2154 245.4320 0001673  97.3440 262.7742 15.08843455113286,6917.87,95.437,540.892,538.577,0.0
53013.0,STARLINK-4177,PAYLOAD,2024-07-20 19:18:47,15.08846559,0.0001663,53.215,243.6472,97.6308,262.4873,0.00031443,4.721e-05,0.0,0 STARLINK-4177,1 53013U 22076AD  24202.80471211  .00004721  00000-0  31443-3 0  9995,2 53013  53.2150 243.6472 0001663  97.6308 262.4873 15.08846559112879,6917.86,95.437,540.876,538.575,0.0
53013.0,STARLINK-4177,PAYLOAD,2024-07-21 08:01:52,15.08848795,0.0001664,53.2156,241.2647,94.3711,265.7471,0.00052178,8.028e-05,0.0,0 STARLINK-4177,1 53013U 22076AD  24203.33463097  .00008028  00000-0  52178-3 0  9999,2 53013  53.2156 241.2647 0001664  94.3711 265.7471 15.08848795112959,6917.854,95.437,540.87,538.567,0.0
53013.0,STARLINK-4177,PAYLOAD,2024-07-22 11:03:24,15.08847845,0.0001638,53.215,236.2102,90.661,269.457,-3.551e-05,-8.53e-06,0.0,0 STARLINK-4177,1 53013U 22076AD  24204.46070414 -.00000853  00000-0 -35510-4 0  9993,2 53013  53.2150 236.2102 0001638  90.6610 269.4570 15.08847845113598,6917.856,95.437,540.855,538.588,0.0
53013.0,STARLINK-4177,PAYLOAD,2024-07-23 09:18:48,15.08849077,0.0001527,53.2156,232.0482,77.4758,282.6405,3.7098e-05,3.03e-06,0.0,0 STARLINK-4177,1 53013U 22076AD  24205.38806345  .00000303  00000-0  37098-4 0  9996,2 53013  53.2156 232.0482 0001527  77.4758 282.6405 15.08849077113269,6917.853,95.437,540.774,538.661,0.0
53013.0,STARLINK-4177,PAYLOAD,2024-07-24 01:12:40,15.08840571,0.0001536,53.2158,229.0766,76.1295,283.9868,6.0355e-05,6.73e-06,0.0,0 STARLINK-4177,1 53013U 22076AD  24206.05046746  .00000673  00000-0  60355-4 0  9994,2 53013  53.2158 229.0766 0001536  76.1295 283.9868 15.08840571113834,6917.879,95.438,540.806,538.681,0.0
53013.0,STARLINK-4177,PAYLOAD,2024-07-24 10:44:59,15.08835659,0.0001571,53.2162,227.2882,74.0158,286.1008,6.2512e-06,-1.89e-06,0.0,0 STARLINK-4177,1 53013U 22076AD  24206.44791277 -.00000189  00000-0  62512-5 0  9994,2 53013  53.2162 227.2882 0001571  74.0158 286.1008 15.08835659113890,6917.894,95.438,540.845,538.672,0.0
53013.0,STARLINK-4177,PAYLOAD,2024-07-25 05:49:36,15.08841478,0.0001495,53.2162,223.7204,76.7653,283.3506,5.5618e-05,5.97e-06,0.0,0 STARLINK-4177,1 53013U 22076AD  24207.24278835  .00000597  00000-0  55618-4 0  9993,2 53013  53.2162 223.7204 0001495  76.7653 283.3506 15.08841478113543,6917.876,95.437,540.775,538.707,0.0
53013.0,STARLINK-4177,PAYLOAD,2024-07-25 10:35:46,15.0884358,0.0001438,53.2159,222.8277,81.9884,278.1271,7.1435e-05,8.49e-06,0.0,0 STARLINK-4177,1 53013U 22076AD  24207.44150606  .00000849  00000-0  71435-4 0  9995,2 53013  53.2159 222.8277 0001438  81.9884 278.1271 15.08843580114043,6917.869,95.437,540.729,538.74,0.0
53013.0,STARLINK-4177,PAYLOAD,2024-07-26 07:15:46,15.08842074,0.0001345,53.2152,218.9614,89.8845,270.2301,0.00013368,1.84e-05,0.0,0 STARLINK-4177,1 53013U 22076AD  24208.30262391  .00001840  00000-0  13368-3 0  9998,2 53013  53.2152 218.9614 0001345  89.8845 270.2301 15.08842074113704,6917.874,95.437,540.67,538.809,0.0
53013.0,STARLINK-4177,PAYLOAD,2024-07-26 18:23:28,15.08843493,0.0001377,53.215,216.8803,86.5557,273.5593,0.00010271,1.347e-05,0.0,0 STARLINK-4177,1 53013U 22076AD  24208.76630335  .00001347  00000-0  10271-3 0  9997,2 53013  53.2150 216.8803 0001377  86.5557 273.5593 15.08843493114243,6917.87,95.437,540.687,538.782,0.0
53013.0,STARLINK-4177,PAYLOAD,2024-07-27 05:31:10,15.08841568,0.0001411,53.2153,214.7984,90.0622,270.0532,2.6413e-05,1.32e-06,0.0,0 STARLINK-4177,1 53013U 22076AD  24209.22998586  .00000132  00000-0  26413-4 0  9991,2 53013  53.2153 214.7984 0001411  90.0622 270.0532 15.08841568113846,6917.876,95.437,540.717,538.764,0.0
53013.0,STARLINK-4177,PAYLOAD,2024-07-27 10:17:20,15.08843307,0.000142,53.2154,213.9061,90.7384,269.3771,3.6417e-05,2.92e-06,0.0,0 STARLINK-4177,1 53013U 22076AD  24209.42870384  .00000292  00000-0  36417-4 0  9990,2 53013  53.2154 213.9061 0001420  90.7384 269.3771 15.08843307113878,6917.87,95.437,540.718,538.753,0.0
53013.0,STARLINK-4177,PAYLOAD,2024-07-28 05:21:58,15.08837207,0.0001409,53.2151,210.3364,99.811,260.3041,-4.7243e-05,-1.04e-05,0.0,0 STARLINK-4177,1 53013U 22076AD  24210.22358977 -.00001040  00000-0 -47243-4 0  9992,2 53013  53.2151 210.3364 0001409  99.8110 260.3041 15.08837207114465,6917.889,95.438,540.729,538.779,0.0
53013.0,STARLINK-4177,PAYLOAD,2024-07-28 10:08:07,15.08836356,0.0001403,53.2153,209.4457,94.9469,265.1684,-3.6781e-05,-8.73e-06,0.0,0 STARLINK-4177,1 53013U 22076AD  24210.42231042 -.00000873  00000-0 -36781-4 0  9995,2 53013  53.2153 209.4457 0001403  94.9469 265.1684 15.08836356114028,6917.892,95.438,540.727,538.786,0.0
